CCSDS_OMM_VERS = 2.0
CREATION_DATE  = 
ORIGINATOR     = 

OBJECT_NAME    = STARLINK-36719
OBJECT_ID      = 2026-022A
CENTER_NAME    = EARTH
REF_FRAME      = TEME
TIME_SYSTEM    = UTC
MEAN_ELEMENT_THEORY = SGP/SGP4

EPOCH          = 2026-02-12T12:00:01.999296
MEAN_MOTION    = 15.85407453
ECCENTRICITY   = .0001346
INCLINATION    = 97.2840
RA_OF_ASC_NODE = 76.1969
ARG_OF_PERICENTER = 100.0455
MEAN_ANOMALY   = 166.8186

EPHEMERIS_TYPE = 0
CLASSIFICATION_TYPE = U
NORAD_CAT_ID   = 67648
ELEMENT_SET_NO = 999
REV_AT_EPOCH   = 284
BSTAR          = -.78575E-2
MEAN_MOTION_DOT = -.1632586E-1
MEAN_MOTION_DDOT = 0

CCSDS_OMM_VERS = 2.0
CREATION_DATE  = 
ORIGINATOR     = 

OBJECT_NAME    = STARLINK-36342
OBJECT_ID      = 2026-022B
CENTER_NAME    = EARTH
REF_FRAME      = TEME
TIME_SYSTEM    = UTC
MEAN_ELEMENT_THEORY = SGP/SGP4

EPOCH          = 2026-02-12T12:00:01.999296
MEAN_MOTION    = 15.85565489
ECCENTRICITY   = .0001429
INCLINATION    = 97.2836
RA_OF_ASC_NODE = 76.1981
ARG_OF_PERICENTER = 105.6406
MEAN_ANOMALY   = 164.8343

EPHEMERIS_TYPE = 0
CLASSIFICATION_TYPE = U
NORAD_CAT_ID   = 67649
ELEMENT_SET_NO = 999
REV_AT_EPOCH   = 284
BSTAR          = -.78123E-2
MEAN_MOTION_DOT = -.1635376E-1
MEAN_MOTION_DDOT = 0

CCSDS_OMM_VERS = 2.0
CREATION_DATE  = 
ORIGINATOR     = 

OBJECT_NAME    = STARLINK-36703
OBJECT_ID      = 2026-022C
CENTER_NAME    = EARTH
REF_FRAME      = TEME
TIME_SYSTEM    = UTC
MEAN_ELEMENT_THEORY = SGP/SGP4

EPOCH          = 2026-02-12T12:00:01.999296
MEAN_MOTION    = 15.85775335
ECCENTRICITY   = .0001548
INCLINATION    = 97.2836
RA_OF_ASC_NODE = 76.2001
ARG_OF_PERICENTER = 104.0163
MEAN_ANOMALY   = 171.0309

EPHEMERIS_TYPE = 0
CLASSIFICATION_TYPE = U
NORAD_CAT_ID   = 67650
ELEMENT_SET_NO = 999
REV_AT_EPOCH   = 284
BSTAR          = -.77447E-2
MEAN_MOTION_DOT = -.1637651E-1
MEAN_MOTION_DDOT = 0

CCSDS_OMM_VERS = 2.0
CREATION_DATE  = 
ORIGINATOR     = 

OBJECT_NAME    = STARLINK-36696
OBJECT_ID      = 2026-022D
CENTER_NAME    = EARTH
REF_FRAME      = TEME
TIME_SYSTEM    = UTC
MEAN_ELEMENT_THEORY = SGP/SGP4

EPOCH          = 2026-02-12T12:00:01.999296
MEAN_MOTION    = 15.85980608
ECCENTRICITY   = .00014
INCLINATION    = 97.2833
RA_OF_ASC_NODE = 76.2024
ARG_OF_PERICENTER = 105.2069
MEAN_ANOMALY   = 174.6562

EPHEMERIS_TYPE = 0
CLASSIFICATION_TYPE = U
NORAD_CAT_ID   = 67651
ELEMENT_SET_NO = 999
REV_AT_EPOCH   = 284
BSTAR          = -.76128E-2
MEAN_MOTION_DOT = -.1627306E-1
MEAN_MOTION_DDOT = 0

CCSDS_OMM_VERS = 2.0
CREATION_DATE  = 
ORIGINATOR     = 

OBJECT_NAME    = STARLINK-36699
OBJECT_ID      = 2026-022E
CENTER_NAME    = EARTH
REF_FRAME      = TEME
TIME_SYSTEM    = UTC
MEAN_ELEMENT_THEORY = SGP/SGP4

EPOCH          = 2026-02-12T12:00:01.999296
MEAN_MOTION    = 15.86162300
ECCENTRICITY   = .0001334
INCLINATION    = 97.2833
RA_OF_ASC_NODE = 76.2042
ARG_OF_PERICENTER = 106.8723
MEAN_ANOMALY   = 177.1005

EPHEMERIS_TYPE = 0
CLASSIFICATION_TYPE = U
NORAD_CAT_ID   = 67652
ELEMENT_SET_NO = 999
REV_AT_EPOCH   = 284
BSTAR          = -.75418E-2
MEAN_MOTION_DOT = -.162654E-1
MEAN_MOTION_DDOT = 0

CCSDS_OMM_VERS = 2.0
CREATION_DATE  = 
ORIGINATOR     = 

OBJECT_NAME    = STARLINK-36694
OBJECT_ID      = 2026-022F
CENTER_NAME    = EARTH
REF_FRAME      = TEME
TIME_SYSTEM    = UTC
MEAN_ELEMENT_THEORY = SGP/SGP4

EPOCH          = 2026-02-12T12:00:01.999296
MEAN_MOTION    = 15.86394001
ECCENTRICITY   = .0001295
INCLINATION    = 97.2832
RA_OF_ASC_NODE = 76.2066
ARG_OF_PERICENTER = 109.7139
MEAN_ANOMALY   = 179.5451

EPHEMERIS_TYPE = 0
CLASSIFICATION_TYPE = U
NORAD_CAT_ID   = 67653
ELEMENT_SET_NO = 999
REV_AT_EPOCH   = 284
BSTAR          = -.73995E-2
MEAN_MOTION_DOT = -.1615595E-1
MEAN_MOTION_DDOT = 0

CCSDS_OMM_VERS = 2.0
CREATION_DATE  = 
ORIGINATOR     = 

OBJECT_NAME    = STARLINK-36620
OBJECT_ID      = 2026-022G
CENTER_NAME    = EARTH
REF_FRAME      = TEME
TIME_SYSTEM    = UTC
MEAN_ELEMENT_THEORY = SGP/SGP4

EPOCH          = 2026-02-12T12:00:01.999296
MEAN_MOTION    = 15.86603111
ECCENTRICITY   = .0001299
INCLINATION    = 97.2828
RA_OF_ASC_NODE = 76.2080
ARG_OF_PERICENTER = 104.4141
MEAN_ANOMALY   = 189.4422

EPHEMERIS_TYPE = 0
CLASSIFICATION_TYPE = U
NORAD_CAT_ID   = 67654
ELEMENT_SET_NO = 999
REV_AT_EPOCH   = 284
BSTAR          = -.73374E-2
MEAN_MOTION_DOT = -.1618187E-1
MEAN_MOTION_DDOT = 0

CCSDS_OMM_VERS = 2.0
CREATION_DATE  = 
ORIGINATOR     = 

OBJECT_NAME    = STARLINK-36720
OBJECT_ID      = 2026-022H
CENTER_NAME    = EARTH
REF_FRAME      = TEME
TIME_SYSTEM    = UTC
MEAN_ELEMENT_THEORY = SGP/SGP4

EPOCH          = 2026-02-12T12:00:01.999296
MEAN_MOTION    = 15.86848889
ECCENTRICITY   = .0001365
INCLINATION    = 97.2829
RA_OF_ASC_NODE = 76.2107
ARG_OF_PERICENTER = 105.4025
MEAN_ANOMALY   = 193.8043

EPHEMERIS_TYPE = 0
CLASSIFICATION_TYPE = U
NORAD_CAT_ID   = 67655
ELEMENT_SET_NO = 999
REV_AT_EPOCH   = 284
BSTAR          = -.72341E-2
MEAN_MOTION_DOT = -.1615286E-1
MEAN_MOTION_DDOT = 0

CCSDS_OMM_VERS = 2.0
CREATION_DATE  = 
ORIGINATOR     = 

OBJECT_NAME    = STARLINK-36688
OBJECT_ID      = 2026-022J
CENTER_NAME    = EARTH
REF_FRAME      = TEME
TIME_SYSTEM    = UTC
MEAN_ELEMENT_THEORY = SGP/SGP4

EPOCH          = 2026-02-12T12:00:01.999296
MEAN_MOTION    = 15.87017807
ECCENTRICITY   = .0001304
INCLINATION    = 97.2824
RA_OF_ASC_NODE = 76.2117
ARG_OF_PERICENTER = 99.3953
MEAN_ANOMALY   = 203.7253

EPHEMERIS_TYPE = 0
CLASSIFICATION_TYPE = U
NORAD_CAT_ID   = 67656
ELEMENT_SET_NO = 999
REV_AT_EPOCH   = 284
BSTAR          = -.71586E-2
MEAN_MOTION_DOT = -.1612179E-1
MEAN_MOTION_DDOT = 0

CCSDS_OMM_VERS = 2.0
CREATION_DATE  = 
ORIGINATOR     = 

OBJECT_NAME    = STARLINK-36706
OBJECT_ID      = 2026-022K
CENTER_NAME    = EARTH
REF_FRAME      = TEME
TIME_SYSTEM    = UTC
MEAN_ELEMENT_THEORY = SGP/SGP4

EPOCH          = 2026-02-12T12:00:01.999296
MEAN_MOTION    = 15.87216074
ECCENTRICITY   = .0001322
INCLINATION    = 97.2820
RA_OF_ASC_NODE = 76.2133
ARG_OF_PERICENTER = 100.1491
MEAN_ANOMALY   = 207.4657

EPHEMERIS_TYPE = 0
CLASSIFICATION_TYPE = U
NORAD_CAT_ID   = 67657
ELEMENT_SET_NO = 999
REV_AT_EPOCH   = 281
BSTAR          = -.7059E-2
MEAN_MOTION_DOT = -.1606259E-1
MEAN_MOTION_DDOT = 0

CCSDS_OMM_VERS = 2.0
CREATION_DATE  = 
ORIGINATOR     = 

OBJECT_NAME    = STARLINK-36701
OBJECT_ID      = 2026-022L
CENTER_NAME    = EARTH
REF_FRAME      = TEME
TIME_SYSTEM    = UTC
MEAN_ELEMENT_THEORY = SGP/SGP4

EPOCH          = 2026-02-12T12:00:01.999296
MEAN_MOTION    = 15.87438459
ECCENTRICITY   = .0001291
INCLINATION    = 97.2819
RA_OF_ASC_NODE = 76.2161
ARG_OF_PERICENTER = 105.7701
MEAN_ANOMALY   = 206.7997

EPHEMERIS_TYPE = 0
CLASSIFICATION_TYPE = U
NORAD_CAT_ID   = 67658
ELEMENT_SET_NO = 999
REV_AT_EPOCH   = 284
BSTAR          = -.69686E-2
MEAN_MOTION_DOT = -.1603588E-1
MEAN_MOTION_DDOT = 0

CCSDS_OMM_VERS = 2.0
CREATION_DATE  = 
ORIGINATOR     = 

OBJECT_NAME    = STARLINK-36642
OBJECT_ID      = 2026-022M
CENTER_NAME    = EARTH
REF_FRAME      = TEME
TIME_SYSTEM    = UTC
MEAN_ELEMENT_THEORY = SGP/SGP4

EPOCH          = 2026-02-12T12:00:01.999296
MEAN_MOTION    = 15.87599159
ECCENTRICITY   = .0001224
INCLINATION    = 97.2821
RA_OF_ASC_NODE = 76.2178
ARG_OF_PERICENTER = 100.1646
MEAN_ANOMALY   = 216.0050

EPHEMERIS_TYPE = 0
CLASSIFICATION_TYPE = U
NORAD_CAT_ID   = 67659
ELEMENT_SET_NO = 999
REV_AT_EPOCH   = 284
BSTAR          = -.69161E-2
MEAN_MOTION_DOT = -.1604094E-1
MEAN_MOTION_DDOT = 0

