STARLINK-36719          
1 67648U 26022A   26043.50002314 -.01632586  00000+0 -78575-2 0  9999
2 67648  97.2840  76.1969 0001346 100.0455 166.8186 15.85407453  2842
STARLINK-36342          
1 67649U 26022B   26043.50002314 -.01635376  00000+0 -78123-2 0  9999
2 67649  97.2836  76.1981 0001429 105.6406 164.8343 15.85565489  2848
STARLINK-36703          
1 67650U 26022C   26043.50002314 -.01637651  00000+0 -77447-2 0  9997
2 67650  97.2836  76.2001 0001548 104.0163 171.0309 15.85775335  2844
STARLINK-36696          
1 67651U 26022D   26043.50002314 -.01627306  00000+0 -76128-2 0  9999
2 67651  97.2833  76.2024 0001400 105.2069 174.6562 15.85980608  2843
STARLINK-36699          
1 67652U 26022E   26043.50002314 -.01626540  00000+0 -75418-2 0  9990
2 67652  97.2833  76.2042 0001334 106.8723 177.1005 15.86162300  2846
STARLINK-36694          
1 67653U 26022F   26043.50002314 -.01615595  00000+0 -73995-2 0  9997
2 67653  97.2832  76.2066 0001295 109.7139 179.5451 15.86394001  2847
STARLINK-36620          
1 67654U 26022G   26043.50002314 -.01618187  00000+0 -73374-2 0  9999
2 67654  97.2828  76.2080 0001299 104.4141 189.4422 15.86603111  2841
STARLINK-36720          
1 67655U 26022H   26043.50002314 -.01615286  00000+0 -72341-2 0  9990
2 67655  97.2829  76.2107 0001365 105.4025 193.8043 15.86848889  2840
STARLINK-36688          
1 67656U 26022J   26043.50002314 -.01612179  00000+0 -71586-2 0  9999
2 67656  97.2824  76.2117 0001304  99.3953 203.7253 15.87017807  2844
STARLINK-36706          
1 67657U 26022K   26043.50002314 -.01606259  00000+0 -70590-2 0  9996
2 67657  97.2820  76.2133 0001322 100.1491 207.4657 15.87216074  2810
STARLINK-36701          
1 67658U 26022L   26043.50002314 -.01603588  00000+0 -69686-2 0  9993
2 67658  97.2819  76.2161 0001291 105.7701 206.7997 15.87438459  2845
STARLINK-36642          
1 67659U 26022M   26043.50002314 -.01604094  00000+0 -69161-2 0  9995
2 67659  97.2821  76.2178 0001224 100.1646 216.0050 15.87599159  2849
